start=new Date('2022-02-15T00:00:00.000Z').valueOf();
sats=[{"ECCENTRICITY":"0.00015760","OBJECT_ID":"2020-035M","RCS_SIZE":"LARGE","PERIAPSIS":"546.162","MEAN_MOTION_DOT":"-0.00000417","REV_AT_EPOCH":"9508","LAUNCH_DATE":"2020-06-04","TLE_LINE1":"1 45668U 20035M   22045.81857743 -.00000417  00000-0 -91034-5 0  9991","OBJECT_TYPE":"PAYLOAD","CENTER_NAME":"EARTH","SEMIMAJOR_AXIS":"6925.388","PERIOD":"95.593","MEAN_MOTION_DDOT":"0.0000000000000","FILE":"3300727","OBJECT_NAME":"STARLINK-1451","BSTAR":"-0.00000910340000","ARG_OF_PERICENTER":"64.4713","MEAN_ELEMENT_THEORY":"SGP4","INCLINATION":"53.0571","ELEMENT_SET_NO":"999","REF_FRAME":"TEME","MEAN_MOTION":"15.06387124","SITE":"AFETR","APOAPSIS":"548.344","TLE_LINE2":"2 45668  53.0571 247.9533 0001576  64.4713 295.6439 15.06387124 95086","RA_OF_ASC_NODE":"247.9533","GP_ID":"195964359","DECAY_DATE":null,"MEAN_ANOMALY":"295.6439","EPOCH":"2022-02-14T19:38:45.089952","COUNTRY_CODE":"US","EPHEMERIS_TYPE":"0","TIME_SYSTEM":"UTC","CLASSIFICATION_TYPE":"U","NORAD_CAT_ID":"45668"},{"ELEMENT_SET_NO":"999","MEAN_ELEMENT_THEORY":"SGP4","INCLINATION":"53.0535","ARG_OF_PERICENTER":"64.3428","DECAY_DATE":null,"TLE_LINE2":"2 45669  53.0535 248.0516 0001835  64.3428 295.7751 15.06386046 95079","GP_ID":"195965610","RA_OF_ASC_NODE":"248.0516","SITE":"AFETR","APOAPSIS":"548.527","REF_FRAME":"TEME","MEAN_MOTION":"15.06386046","EPOCH":"2022-02-14T19:13:34.830048","COUNTRY_CODE":"US","TIME_SYSTEM":"UTC","EPHEMERIS_TYPE":"0","MEAN_ANOMALY":"295.7751","NORAD_CAT_ID":"45669","CLASSIFICATION_TYPE":"U","OBJECT_ID":"2020-035N","RCS_SIZE":"LARGE","ECCENTRICITY":"0.00018350","TLE_LINE1":"1 45669U 20035N   22045.80109757  .00000528  00000-0  54344-4 0  9999","LAUNCH_DATE":"2020-06-04","REV_AT_EPOCH":"9507","MEAN_MOTION_DOT":"0.00000528","PERIAPSIS":"545.986","OBJECT_NAME":"STARLINK-1452","FILE":"3300727","MEAN_MOTION_DDOT":"0.0000000000000","CENTER_NAME":"EARTH","OBJECT_TYPE":"PAYLOAD","SEMIMAJOR_AXIS":"6925.391","PERIOD":"95.593","BSTAR":"0.00005434400000"},{"APOAPSIS":"548.328","SITE":"AFETR","MEAN_MOTION":"15.06400934","REF_FRAME":"TEME","DECAY_DATE":null,"RA_OF_ASC_NODE":"218.0903","GP_ID":"195965860","TLE_LINE2":"2 45670  53.0549 218.0903 0001613  77.6393 282.4776 15.06400934 95382","INCLINATION":"53.0549","MEAN_ELEMENT_THEORY":"SGP4","ARG_OF_PERICENTER":"77.6393","ELEMENT_SET_NO":"999","CLASSIFICATION_TYPE":"U","NORAD_CAT_ID":"45670","COUNTRY_CODE":"US","EPHEMERIS_TYPE":"0","TIME_SYSTEM":"UTC","EPOCH":"2022-02-14T19:01:37.147584","MEAN_ANOMALY":"282.4776","MEAN_MOTION_DOT":"-0.00001494","PERIAPSIS":"546.094","TLE_LINE1":"1 45670U 20035P   22045.79279106 -.00001494  00000-0 -81442-4 0  9999","LAUNCH_DATE":"2020-06-04","REV_AT_EPOCH":"9538","RCS_SIZE":"LARGE","OBJECT_ID":"2020-035P","ECCENTRICITY":"0.00016130","BSTAR":"-0.00008144200000","MEAN_MOTION_DDOT":"0.0000000000000","SEMIMAJOR_AXIS":"6925.346","PERIOD":"95.592","OBJECT_TYPE":"PAYLOAD","CENTER_NAME":"EARTH","OBJECT_NAME":"STARLINK-1453","FILE":"3300727"},{"CLASSIFICATION_TYPE":"U","NORAD_CAT_ID":"45671","MEAN_ANOMALY":"294.0769","EPOCH":"2022-02-14T19:18:51.806592","TIME_SYSTEM":"UTC","COUNTRY_CODE":"US","EPHEMERIS_TYPE":"0","REF_FRAME":"TEME","MEAN_MOTION":"15.06390899","SITE":"AFETR","APOAPSIS":"548.376","TLE_LINE2":"2 45671  53.0535 248.0342 0001638  66.0392 294.0769 15.06390899 95060","RA_OF_ASC_NODE":"248.0342","GP_ID":"195964610","DECAY_DATE":null,"ARG_OF_PERICENTER":"66.0392","MEAN_ELEMENT_THEORY":"SGP4","INCLINATION":"53.0535","ELEMENT_SET_NO":"999","BSTAR":"0.00012992000000","OBJECT_TYPE":"PAYLOAD","CENTER_NAME":"EARTH","SEMIMAJOR_AXIS":"6925.376","PERIOD":"95.593","MEAN_MOTION_DDOT":"0.0000000000000","FILE":"3300727","OBJECT_NAME":"STARLINK-1454","PERIAPSIS":"546.107","MEAN_MOTION_DOT":"0.00001654","LAUNCH_DATE":"2020-06-04","REV_AT_EPOCH":"9506","TLE_LINE1":"1 45671U 20035Q   22045.80476628  .00001654  00000-0  12992-3 0  9999","ECCENTRICITY":"0.00016380","OBJECT_ID":"2020-035Q","RCS_SIZE":"LARGE"},{"CENTER_NAME":"EARTH","OBJECT_TYPE":"PAYLOAD","SEMIMAJOR_AXIS":"6925.365","PERIOD":"95.592","MEAN_MOTION_DDOT":"0.0000000000000","FILE":"3300727","OBJECT_NAME":"STARLINK-1455","BSTAR":"0.00002163400000","ECCENTRICITY":"0.00015670","OBJECT_ID":"2020-035R","RCS_SIZE":"LARGE","PERIAPSIS":"546.144","MEAN_MOTION_DOT":"0.00000041","REV_AT_EPOCH":"9548","LAUNCH_DATE":"2020-06-04","TLE_LINE1":"1 45672U 20035R   22045.74854976  .00000041  00000-0  21634-4 0  9992","MEAN_ANOMALY":"284.3657","EPOCH":"2022-02-14T17:57:54.699264","COUNTRY_CODE":"US","TIME_SYSTEM":"UTC","EPHEMERIS_TYPE":"0","CLASSIFICATION_TYPE":"U","NORAD_CAT_ID":"45672","ARG_OF_PERICENTER":"75.7506","MEAN_ELEMENT_THEORY":"SGP4","INCLINATION":"53.0537","ELEMENT_SET_NO":"999","MEAN_MOTION":"15.06394755","REF_FRAME":"TEME","SITE":"AFETR","APOAPSIS":"548.315","TLE_LINE2":"2 45672  53.0537 218.2970 0001567  75.7506 284.3657 15.06394755 95483","RA_OF_ASC_NODE":"218.2970","GP_ID":"195964860","DECAY_DATE":null},{"FILE":"3300727","OBJECT_NAME":"STARLINK-1456","CENTER_NAME":"EARTH","OBJECT_TYPE":"PAYLOAD","SEMIMAJOR_AXIS":"6925.365","PERIOD":"95.592","MEAN_MOTION_DDOT":"0.0000000000000","BSTAR":"0.00005980100000","ECCENTRICITY":"0.00017810","OBJECT_ID":"2020-035S","RCS_SIZE":"LARGE","LAUNCH_DATE":"2020-06-04","REV_AT_EPOCH":"9508","TLE_LINE1":"1 45673U 20035S   22045.81950132  .00000609  00000-0  59801-4 0  9999","PERIAPSIS":"545.997","MEAN_MOTION_DOT":"0.00000609","MEAN_ANOMALY":"298.0949","EPOCH":"2022-02-14T19:40:04.914048","COUNTRY_CODE":"US","TIME_SYSTEM":"UTC","EPHEMERIS_TYPE":"0","NORAD_CAT_ID":"45673","CLASSIFICATION_TYPE":"U","ELEMENT_SET_NO":"999","ARG_OF_PERICENTER":"62.0220","MEAN_ELEMENT_THEORY":"SGP4","INCLINATION":"53.0528","TLE_LINE2":"2 45673  53.0528 247.9673 0001781  62.0220 298.0949 15.06394500 95083","RA_OF_ASC_NODE":"247.9673","GP_ID":"195965110","DECAY_DATE":null,"MEAN_MOTION":"15.06394500","REF_FRAME":"TEME","SITE":"AFETR","APOAPSIS":"548.464"},{"FILE":"3300727","OBJECT_NAME":"STARLINK-1457","OBJECT_TYPE":"PAYLOAD","CENTER_NAME":"EARTH","SEMIMAJOR_AXIS":"6925.377","PERIOD":"95.593","MEAN_MOTION_DDOT":"0.0000000000000","BSTAR":"-0.00003297800000","ECCENTRICITY":"0.00016180","OBJECT_ID":"2020-035T","RCS_SIZE":"LARGE","REV_AT_EPOCH":"9505","LAUNCH_DATE":"2020-06-04","TLE_LINE1":"1 45674U 20035T   22045.82689472 -.00000773  00000-0 -32978-4 0  9997","PERIAPSIS":"546.121","MEAN_MOTION_DOT":"-0.00000773","MEAN_ANOMALY":"287.4309","EPOCH":"2022-02-14T19:50:43.703808","COUNTRY_CODE":"US","EPHEMERIS_TYPE":"0","TIME_SYSTEM":"UTC","NORAD_CAT_ID":"45674","CLASSIFICATION_TYPE":"U","ELEMENT_SET_NO":"999","ARG_OF_PERICENTER":"72.6857","MEAN_ELEMENT_THEORY":"SGP4","INCLINATION":"53.0535","TLE_LINE2":"2 45674  53.0535 247.9368 0001618  72.6857 287.4309 15.06390865 95054","RA_OF_ASC_NODE":"247.9368","GP_ID":"195965360","DECAY_DATE":null,"MEAN_MOTION":"15.06390865","REF_FRAME":"TEME","SITE":"AFETR","APOAPSIS":"548.362"},{"MEAN_MOTION":"15.06384049","REF_FRAME":"TEME","SITE":"AFETR","APOAPSIS":"548.678","TLE_LINE2":"2 45675  53.0523 247.9790 0002044  51.1379 308.9792 15.06384049 95047","RA_OF_ASC_NODE":"247.9790","GP_ID":"195964110","DECAY_DATE":null,"ARG_OF_PERICENTER":"51.1379","MEAN_ELEMENT_THEORY":"SGP4","INCLINATION":"53.0523","ELEMENT_SET_NO":"999","CLASSIFICATION_TYPE":"U","NORAD_CAT_ID":"45675","MEAN_ANOMALY":"308.9792","EPOCH":"2022-02-14T19:34:48.128448","COUNTRY_CODE":"US","TIME_SYSTEM":"UTC","EPHEMERIS_TYPE":"0","PERIAPSIS":"545.847","MEAN_MOTION_DOT":"0.00000573","REV_AT_EPOCH":"9504","LAUNCH_DATE":"2020-06-04","TLE_LINE1":"1 45675U 20035U   22045.81583482  .00000573  00000-0  57421-4 0  9997","ECCENTRICITY":"0.00020440","OBJECT_ID":"2020-035U","RCS_SIZE":"LARGE","BSTAR":"0.00005742100000","OBJECT_TYPE":"PAYLOAD","CENTER_NAME":"EARTH","SEMIMAJOR_AXIS":"6925.397","PERIOD":"95.593","MEAN_MOTION_DDOT":"0.0000000000000","FILE":"3300727","OBJECT_NAME":"STARLINK-1458"},{"OBJECT_NAME":"STARLINK-1460","FILE":"3300727","MEAN_MOTION_DDOT":"0.0000000000000","SEMIMAJOR_AXIS":"6925.395","PERIOD":"95.593","OBJECT_TYPE":"PAYLOAD","CENTER_NAME":"EARTH","BSTAR":"-0.00004007900000","RCS_SIZE":"LARGE","OBJECT_ID":"2020-035V","ECCENTRICITY":"0.00016640","TLE_LINE1":"1 45676U 20035V   22045.78633687 -.00000878  00000-0 -40079-4 0  9998","REV_AT_EPOCH":"9503","LAUNCH_DATE":"2020-06-04","MEAN_MOTION_DOT":"-0.00000878","PERIAPSIS":"546.107","TIME_SYSTEM":"UTC","COUNTRY_CODE":"US","EPHEMERIS_TYPE":"0","EPOCH":"2022-02-14T18:52:19.505568","MEAN_ANOMALY":"302.8446","NORAD_CAT_ID":"45676","CLASSIFICATION_TYPE":"U","ELEMENT_SET_NO":"999","INCLINATION":"53.0548","MEAN_ELEMENT_THEORY":"SGP4","ARG_OF_PERICENTER":"57.2703","DECAY_DATE":null,"GP_ID":"195964360","RA_OF_ASC_NODE":"248.1174","TLE_LINE2":"2 45676  53.0548 248.1174 0001664  57.2703 302.8446 15.06384926 95031","APOAPSIS":"548.412","SITE":"AFETR","REF_FRAME":"TEME","MEAN_MOTION":"15.06384926"},{"OBJECT_ID":"2020-035W","RCS_SIZE":"LARGE","ECCENTRICITY":"0.00017360","TLE_LINE1":"1 45677U 20035W   22045.79738986 -.00002418  00000-0 -14356-3 0  9998","LAUNCH_DATE":"2020-06-04","REV_AT_EPOCH":"9507","MEAN_MOTION_DOT":"-0.00002418","PERIAPSIS":"546.053","OBJECT_NAME":"STARLINK-1392","FILE":"3300727","MEAN_MOTION_DDOT":"0.0000000000000","OBJECT_TYPE":"PAYLOAD","CENTER_NAME":"EARTH","SEMIMAJOR_AXIS":"6925.391","PERIOD":"95.593","BSTAR":"-0.00014356000000","ELEMENT_SET_NO":"999","MEAN_ELEMENT_THEORY":"SGP4","INCLINATION":"53.0513","ARG_OF_PERICENTER":"56.3334","DECAY_DATE":null,"TLE_LINE2":"2 45677  53.0513 248.0793 0001736  56.3334 303.7820 15.06386263 95076","RA_OF_ASC_NODE":"248.0793","GP_ID":"195965611","SITE":"AFETR","APOAPSIS":"548.458","REF_FRAME":"TEME","MEAN_MOTION":"15.06386263","EPOCH":"2022-02-14T19:08:14.483904","EPHEMERIS_TYPE":"0","COUNTRY_CODE":"US","TIME_SYSTEM":"UTC","MEAN_ANOMALY":"303.7820","NORAD_CAT_ID":"45677","CLASSIFICATION_TYPE":"U"}];
